NORAD_CAT_ID,OBJECT_NAME,OBJECT_TYPE,EPOCH,MEAN_MOTION,ECCENTRICITY,INCLINATION,RA_OF_ASC_NODE,ARG_OF_PERICENTER,MEAN_ANOMALY,BSTAR,MEAN_MOTION_DOT,MEAN_MOTION_DDOT,TLE_LINE0,TLE_LINE1,TLE_LINE2,SEMIMAJOR_AXIS,PERIOD,APOGEE,PERIGEE,DECAYED
51964.0,STARLINK-3690,PAYLOAD,2024-03-26 01:14:42,15.06369482,0.0001743,53.0572,350.6607,102.24,257.8785,-0.0003494,-5.478e-05,0.0,0 STARLINK-3690,1 51964U 22025J   24086.05188117 -.00005478  00000-0 -34940-3 0  9996,2 51964  53.0572 350.6607 0001743 102.2400 257.8785 15.06369482114507,6925.442,95.594,548.514,546.1,0.0
51964.0,STARLINK-3690,PAYLOAD,2024-03-26 10:47:56,15.06386152,0.0001605,53.0569,348.8756,105.7301,254.3865,0.0001048,1.279e-05,0.0,0 STARLINK-3690,1 51964U 22025J   24086.44996193  .00001279  00000-0  10480-3 0  9996,2 51964  53.0569 348.8756 0001605 105.7301 254.3865 15.06386152114562,6925.391,95.593,548.368,546.144,0.0
51964.0,STARLINK-3690,PAYLOAD,2024-03-26 21:56:42,15.0640764,0.0002104,53.0563,346.7874,137.1127,223.0027,0.00083538,0.00012186,0.0,0 STARLINK-3690,1 51964U 22025J   24086.91438517  .00012186  00000-0  83538-3 0  9992,2 51964  53.0563 346.7874 0002104 137.1127 223.0027 15.06407640114631,6925.325,95.592,548.647,545.733,0.0
51964.0,STARLINK-3690,PAYLOAD,2024-03-26 23:32:15,15.06406369,0.0001727,53.056,346.4915,111.6092,248.5081,0.00084598,0.00012344,0.0,0 STARLINK-3690,1 51964U 22025J   24086.98073531  .00012344  00000-0  84598-3 0  9993,2 51964  53.0560 346.4915 0001727 111.6092 248.5081 15.06406369113558,6925.329,95.592,548.39,545.998,0.0
51964.0,STARLINK-3690,PAYLOAD,2024-03-27 10:41:02,15.06405282,0.0001308,53.0535,344.4076,117.5174,242.5948,0.00071976,0.00010457,0.0,0 STARLINK-3690,1 51964U 22025J   24087.44516386  .00010457  00000-0  71976-3 0  9994,2 51964  53.0535 344.4076 0001308 117.5174 242.5948 15.06405282114715,6925.332,95.592,548.103,546.292,0.0
51964.0,STARLINK-3690,PAYLOAD,2024-03-27 21:49:48,15.06410309,0.0001715,53.056,342.3193,122.7535,237.3619,0.0005958,8.606e-05,0.0,0 STARLINK-3690,1 51964U 22025J   24087.90958725  .00008606  00000-0  59580-3 0  9992,2 51964  53.0560 342.3193 0001715 122.7535 237.3619 15.06410309113690,6925.317,95.591,548.37,545.994,0.0
51964.0,STARLINK-3690,PAYLOAD,2024-03-28 02:36:25,15.06417222,0.0001783,53.056,341.4253,121.0282,239.0883,0.00052508,7.552e-05,0.0,0 STARLINK-3690,1 51964U 22025J   24088.10862363  .00007552  00000-0  52508-3 0  9999,2 51964  53.0560 341.4253 0001783 121.0282 239.0883 15.06417222113720,6925.296,95.591,548.396,545.926,0.0
51964.0,STARLINK-3690,PAYLOAD,2024-03-28 20:07:21,15.06402879,0.0001389,53.0553,338.1505,121.9532,238.1592,7.8583e-05,8.89e-06,0.0,0 STARLINK-3690,1 51964U 22025J   24088.83844110  .00000889  00000-0  78583-4 0  9997,2 51964  53.0553 338.1505 0001389 121.9532 238.1592 15.06402879114926,6925.34,95.592,548.167,546.243,0.0
51964.0,STARLINK-3690,PAYLOAD,2024-03-28 23:18:25,15.06405679,0.0001131,53.055,337.5559,105.0254,255.086,0.00012254,1.545e-05,0.0,0 STARLINK-3690,1 51964U 22025J   24088.97113364  .00001545  00000-0  12254-3 0  9994,2 51964  53.0550 337.5559 0001131 105.0254 255.0860 15.06405679113852,6925.331,95.592,547.979,546.413,0.0
51964.0,STARLINK-3690,PAYLOAD,2024-03-29 21:35:59,15.06392569,0.000108,53.0555,333.3849,135.98,224.1275,-8.9309e-05,-1.611e-05,0.0,0 STARLINK-3690,1 51964U 22025J   24089.89999324 -.00001611  00000-0 -89309-4 0  9996,2 51964  53.0555 333.3849 0001080 135.9800 224.1275 15.06392569113990,6925.371,95.593,547.984,546.488,0.0
51964.0,STARLINK-3690,PAYLOAD,2024-03-30 02:22:36,15.06389532,0.0001331,53.0546,332.4908,103.1624,256.9513,-0.0002431,-3.899e-05,0.0,0 STARLINK-3690,1 51964U 22025J   24090.09903924 -.00003899  00000-0 -24310-3 0  9991,2 51964  53.0546 332.4908 0001331 103.1624 256.9513 15.06389532115116,6925.381,95.593,548.167,546.324,0.0
51964.0,STARLINK-3690,PAYLOAD,2024-03-30 08:44:45,15.06397306,0.0001157,53.0551,331.3027,108.0982,252.0133,-8.3923e-05,-1.531e-05,0.0,0 STARLINK-3690,1 51964U 22025J   24090.36442052 -.00001531  00000-0 -83923-4 0  9998,2 51964  53.0551 331.3027 0001157 108.0982 252.0133 15.06397306115156,6925.357,95.592,548.023,546.421,0.0
51964.0,STARLINK-3690,PAYLOAD,2024-03-30 23:04:36,15.06412264,9.88e-05,53.0534,328.621,80.2686,279.8414,0.00033258,4.677e-05,0.0,0 STARLINK-3690,1 51964U 22025J   24090.96153798  .00004677  00000-0  33258-3 0  9997,2 51964  53.0534 328.6210 0000988  80.2686 279.8414 15.06412264114152,6925.311,95.591,547.86,546.492,0.0
51964.0,STARLINK-3690,PAYLOAD,2024-03-31 02:15:41,15.06420863,0.0001115,53.0545,328.0244,79.2498,280.8616,0.00048237,6.915e-05,0.0,0 STARLINK-3690,1 51964U 22025J   24091.09422818  .00006915  00000-0  48237-3 0  9994,2 51964  53.0545 328.0244 0001115  79.2498 280.8616 15.06420863115260,6925.285,95.591,547.922,546.377,0.0
51964.0,STARLINK-3690,PAYLOAD,2024-03-31 08:37:51,15.06404814,0.0001574,53.0543,326.8321,83.2686,276.8482,0.00026118,3.611e-05,0.0,0 STARLINK-3690,1 51964U 22025J   24091.35962302  .00003611  00000-0  26118-3 0  9994,2 51964  53.0543 326.8321 0001574  83.2686 276.8482 15.06404814115302,6925.334,95.592,548.289,546.109,0.0
51964.0,STARLINK-3690,PAYLOAD,2024-03-31 21:22:10,15.06403047,0.0001139,53.0539,324.4502,85.9124,274.1995,0.0002854,3.972e-05,0.0,0 STARLINK-3690,1 51964U 22025J   24091.89039605  .00003972  00000-0  28540-3 0  9995,2 51964  53.0539 324.4502 0001139  85.9124 274.1995 15.06403047114299,6925.339,95.592,547.993,546.415,0.0
51964.0,STARLINK-3690,PAYLOAD,2024-04-01 14:53:06,15.06401618,0.0001615,53.0541,321.1765,77.8874,282.2296,5.4593e-05,5.32e-06,0.0,0 STARLINK-3690,1 51964U 22025J   24092.62021010  .00000532  00000-0  54593-4 0  9995,2 51964  53.0541 321.1765 0001615  77.8874 282.2296 15.06401618114407,6925.344,95.592,548.327,546.09,0.0
51964.0,STARLINK-3690,PAYLOAD,2024-04-01 21:15:15,15.06392714,0.0001231,53.0541,319.9851,83.9846,276.1283,-0.00018305,-3.006e-05,0.0,0 STARLINK-3690,1 51964U 22025J   24092.88559981 -.00003006  00000-0 -18305-3 0  9997,2 51964  53.0541 319.9851 0001231  83.9846 276.1283 15.06392714115538,6925.371,95.593,548.088,546.383,0.0
51964.0,STARLINK-3690,PAYLOAD,2024-04-02 08:24:02,15.06395838,0.0001197,53.0546,317.8998,80.8007,279.3118,-5.1019e-07,-2.89e-06,0.0,0 STARLINK-3690,1 51964U 22025J   24093.35002862 -.00000289  00000-0 -51019-6 0  9993,2 51964  53.0546 317.8998 0001197  80.8007 279.3118 15.06395838114517,6925.361,95.592,548.055,546.397,0.0
51964.0,STARLINK-3690,PAYLOAD,2024-04-02 21:08:21,15.06391967,0.0001218,53.0545,315.517,79.766,280.3466,0.00016582,2.189e-05,0.0,0 STARLINK-3690,1 51964U 22025J   24093.88080851  .00002189  00000-0  16582-3 0  9997,2 51964  53.0545 315.5170 0001218  79.7660 280.3466 15.06391967114594,6925.373,95.593,548.082,546.395,0.0
51964.0,STARLINK-3690,PAYLOAD,2024-04-03 08:17:08,15.06399867,0.0001254,53.0546,313.4326,78.1507,281.9622,0.00041991,5.979e-05,0.0,0 STARLINK-3690,1 51964U 22025J   24094.34523659  .00005979  00000-0  41991-3 0  9999,2 51964  53.0546 313.4326 0001254  78.1507 281.9622 15.06399867115755,6925.349,95.592,548.082,546.346,0.0
51964.0,STARLINK-3690,PAYLOAD,2024-04-03 14:39:17,15.06402104,0.0001262,53.0545,312.2414,77.4332,282.6798,0.00043929,6.268e-05,0.0,0 STARLINK-3690,1 51964U 22025J   24094.61062394  .00006268  00000-0  43929-3 0  9998,2 51964  53.0545 312.2414 0001262  77.4332 282.6798 15.06402104114701,6925.342,95.592,548.081,546.333,0.0
51964.0,STARLINK-3690,PAYLOAD,2024-04-03 21:01:27,15.06408519,0.0001233,53.0546,311.0492,82.2475,277.8654,0.00050471,7.246e-05,0.0,0 STARLINK-3690,1 51964U 22025J   24094.87600865  .00007246  00000-0  50471-3 0  9994,2 51964  53.0546 311.0492 0001233  82.2475 277.8654 15.06408519114742,6925.322,95.592,548.041,546.334,0.0
51964.0,STARLINK-3690,PAYLOAD,2024-04-04 20:54:32,15.06406144,0.000128,53.0528,306.5793,86.6798,273.4338,0.00020403,2.759e-05,0.0,0 STARLINK-3690,1 51964U 22025J   24095.87120925  .00002759  00000-0  20403-3 0  9995,2 51964  53.0528 306.5793 0001280  86.6798 273.4338 15.06406144115983,6925.33,95.592,548.081,546.308,0.0
51964.0,STARLINK-3690,PAYLOAD,2024-04-05 14:25:28,15.06399743,0.0001249,53.0539,303.3065,90.7142,269.399,2.295e-05,6e-07,0.0,0 STARLINK-3690,1 51964U 22025J   24096.60102437  .00000060  00000-0  22950-4 0  9998,2 51964  53.0539 303.3065 0001249  90.7142 269.3990 15.06399743115003,6925.349,95.592,548.079,546.349,0.0
51964.0,STARLINK-3690,PAYLOAD,2024-04-05 20:47:37,15.06401975,0.0001254,53.0541,302.1151,89.4928,270.6204,7.391e-05,8.2e-06,0.0,0 STARLINK-3690,1 51964U 22025J   24096.86641069  .00000820  00000-0  73910-4 0  9991,2 51964  53.0541 302.1151 0001254  89.4928 270.6204 15.06401975116131,6925.343,95.592,548.076,546.339,0.0
51964.0,STARLINK-3690,PAYLOAD,2024-04-06 06:20:51,15.06409529,0.000133,53.0541,300.3282,89.1762,270.9379,-0.00021061,-3.418e-05,0.0,0 STARLINK-3690,1 51964U 22025J   24097.26448592 -.00003418  00000-0 -21061-3 0  9999,2 51964  53.0541 300.3282 0001330  89.1762 270.9379 15.06409529115109,6925.319,95.592,548.105,546.263,0.0
51964.0,STARLINK-3690,PAYLOAD,2024-04-06 22:16:16,15.06396012,0.0001326,53.0543,297.3498,94.7651,265.349,2.309e-05,6.2e-07,0.0,0 STARLINK-3690,1 51964U 22025J   24097.92796299  .00000062  00000-0  23090-4 0  9997,2 51964  53.0543 297.3498 0001326  94.7651 265.3490 15.06396012115204,6925.361,95.592,548.144,546.307,0.0
51964.0,STARLINK-3690,PAYLOAD,2024-04-07 12:36:07,15.06397174,0.0001338,53.0548,294.6686,88.5582,271.5561,7.9154e-05,8.98e-06,0.0,0 STARLINK-3690,1 51964U 22025J   24098.52508544  .00000898  00000-0  79154-4 0  9997,2 51964  53.0548 294.6686 0001338  88.5582 271.5561 15.06397174115292,6925.357,95.592,548.149,546.296,0.0
51964.0,STARLINK-3690,PAYLOAD,2024-04-07 20:33:49,15.06399486,0.0001287,53.0545,293.179,87.814,272.2997,8.5808e-05,9.97e-06,0.0,0 STARLINK-3690,1 51964U 22025J   24098.85681849  .00000997  00000-0  85808-4 0  9996,2 51964  53.0545 293.1790 0001287  87.8140 272.2997 15.06399486115349,6925.35,95.592,548.106,546.324,0.0
